$$SOE
2460721.500000000, A.D. 2025-Feb-15 00:00:00.0000, 4.427713584710788E+08, 1.444768629487856E+08, -3.511546061488138E+07,
2460728.500000000, A.D. 2025-Feb-22 00:00:00.0000, 4.398725986196318E+08, 1.538376732147407E+08, -3.682037939226937E+07,
2460735.500000000, A.D. 2025-Mar-01 00:00:00.0000, 4.367647492021807E+08, 1.631253653160439E+08, -3.850779516053750E+07,
2460742.500000000, A.D. 2025-Mar-08 00:00:00.0000, 4.334497816115980E+08, 1.723357100641932E+08, -4.017694936936309E+07,
2460749.500000000, A.D. 2025-Mar-15 00:00:00.0000, 4.299297429992398E+08, 1.814645310789122E+08, -4.182709439522655E+07,
2460756.500000000, A.D. 2025-Mar-22 00:00:00.0000, 4.262067527279381E+08, 1.905077058752304E+08, -4.345749339843580E+07,
2460763.500000000, A.D. 2025-Mar-29 00:00:00.0000, 4.222830002213926E+08, 1.994611646702862E+08, -4.506742048464408E+07,
2460770.500000000, A.D. 2025-Apr-05 00:00:00.0000, 4.181607445342392E+08, 2.083208900489046E+08, -4.665616094483317E+07,
2460777.500000000, A.D. 2025-Apr-12 00:00:00.0000, 4.138423137157416E+08, 2.170829175940945E+08, -4.822301138907776E+07,
2460784.500000000, A.D. 2025-Apr-19 00:00:00.0000, 4.093301037798096E+08, 2.257433366035797E+08, -4.976727982952419E+07,
2460791.500000000, A.D. 2025-Apr-26 00:00:00.0000, 4.046265775530137E+08, 2.342982906915839E+08, -5.128828575468788E+07,
2460798.500000000, A.D. 2025-May-03 00:00:00.0000, 3.997342635141284E+08, 2.427439782971967E+08, -5.278536020447192E+07,
2460805.500000000, A.D. 2025-May-10 00:00:00.0000, 3.946557546535323E+08, 2.510766531100980E+08, -5.425784584830566E+07,
2460812.500000000, A.D. 2025-May-17 00:00:00.0000, 3.893937073889213E+08, 2.592926243747488E+08, -5.570509707356928E+07,
2460819.500000000, A.D. 2025-May-24 00:00:00.0000, 3.839508407111883E+08, 2.673882570207438E+08, -5.712648010516539E+07,
2460826.500000000, A.D. 2025-May-31 00:00:00.0000, 3.783299359783980E+08, 2.753599719319640E+08, -5.852137316964064E+07,
2460833.500000000, A.D. 2025-Jun-07 00:00:00.0000, 3.725338369558839E+08, 2.832042475598119E+08, -5.988916656880894E+07,
2460840.500000000, A.D. 2025-Jun-14 00:00:00.0000, 3.665654477353493E+08, 2.909176222153655E+08, -6.122926250025944E+07,
2460847.500000000, A.D. 2025-Jun-21 00:00:00.0000, 3.604277297500771E+08, 2.984966937731035E+08, -6.254107500415589E+07,
2460854.500000000, A.D. 2025-Jun-28 00:00:00.0000, 3.541237010158871E+08, 3.059381185524763E+08, -6.382403017979471E+07,
2460861.500000000, A.D. 2025-Jul-05 00:00:00.0000, 3.476564360798774E+08, 3.132386115341930E+08, -6.507756635666937E+07,
2460868.500000000, A.D. 2025-Jul-12 00:00:00.0000, 3.410290654846143E+08, 3.203949471075218E+08, -6.630113417668463E+07,
2460875.500000000, A.D. 2025-Jul-19 00:00:00.0000, 3.342447749368541E+08, 3.274039597754489E+08, -6.749419665218103E+07,
2460882.500000000, A.D. 2025-Jul-26 00:00:00.0000, 3.273068043904953E+08, 3.342625447626517E+08, -6.865622922395898E+07,
2460889.500000000, A.D. 2025-Aug-02 00:00:00.0000, 3.202184471088188E+08, 3.409676585489293E+08, -6.978671982374658E+07,
2460896.500000000, A.D. 2025-Aug-09 00:00:00.0000, 3.129830487287040E+08, 3.475163193139014E+08, -7.088516894444229E+07,
2460903.500000000, A.D. 2025-Aug-16 00:00:00.0000, 3.056040064023278E+08, 3.539056072299562E+08, -7.195108973005950E+07,
2460910.500000000, A.D. 2025-Aug-23 00:00:00.0000, 2.980847683069888E+08, 3.601326646206025E+08, -7.298400811042859E+07,
2460917.500000000, A.D. 2025-Aug-30 00:00:00.0000, 2.904288338502052E+08, 3.661946966995145E+08, -7.398346295217894E+07,
2460924.500000000, A.D. 2025-Sep-06 00:00:00.0000, 2.826397531498327E+08, 3.720889738912876E+08, -7.494900601374979E+07,
2460931.500000000, A.D. 2025-Sep-13 00:00:00.0000, 2.747211241155533E+08, 3.778128332533489E+08, -7.588020175363329E+07,
2460938.500000000, A.D. 2025-Sep-20 00:00:00.0000, 2.666765904054351E+08, 3.833636773594590E+08, -7.677662742732789E+07,
2460945.500000000, A.D. 2025-Sep-27 00:00:00.0000, 2.585098413180224E+08, 3.887389737580659E+08, -7.763787331672885E+07,
2460952.500000000, A.D. 2025-Oct-04 00:00:00.0000, 2.502246116026756E+08, 3.939362555443377E+08, -7.846354286286652E+07,
2460959.500000000, A.D. 2025-Oct-11 00:00:00.0000, 2.418246808131108E+08, 3.989531221032290E+08, -7.925325274466307E+07,
2460966.500000000, A.D. 2025-Oct-18 00:00:00.0000, 2.333138724865301E+08, 4.037872397499443E+08, -8.000663295218883E+07,
2460973.500000000, A.D. 2025-Oct-25 00:00:00.0000, 2.246960532865888E+08, 4.084363422796695E+08, -8.072332686643283E+07,
2460980.500000000, A.D. 2025-Nov-01 00:00:00.0000, 2.159751321483191E+08, 4.128982314429594E+08, -8.140299134810384E+07,
2460987.500000000, A.D. 2025-Nov-08 00:00:00.0000, 2.071550594582240E+08, 4.171707773162503E+08, -8.204529684138462E+07,
2460994.500000000, A.D. 2025-Nov-15 00:00:00.0000, 1.982398264160343E+08, 4.212519185098501E+08, -8.264992751118685E+07,
2461001.500000000, A.D. 2025-Nov-22 00:00:00.0000, 1.892334649795761E+08, 4.251396624345741E+08, -8.321658143314046E+07,
2461008.500000000, A.D. 2025-Nov-29 00:00:00.0000, 1.801400482388261E+08, 4.288320867627029E+08, -8.374497072986172E+07,
2461015.500000000, A.D. 2025-Dec-06 00:00:00.0000, 1.709636889402346E+08, 4.323273419458159E+08, -8.423482145532031E+07,
2461022.500000000, A.D. 2025-Dec-13 00:00:00.0000, 1.617085365910733E+08, 4.356236514187760E+08, -8.468587354171565E+07,
2461029.500000000, A.D. 2025-Dec-20 00:00:00.0000, 1.523787766349286E+08, 4.387193105162306E+08, -8.509788104633482E+07,
2461036.500000000, A.D. 2025-Dec-27 00:00:00.0000, 1.429786306241658E+08, 4.416126866943508E+08, -8.547061238878846E+07,
2461043.500000000, A.D. 2026-Jan-03 00:00:00.0000, 1.335123559284820E+08, 4.443022204425082E+08, -8.580385049502775E+07,
2461050.500000000, A.D. 2026-Jan-10 00:00:00.0000, 1.239842450875142E+08, 4.467864262071602E+08, -8.609739291374962E+07,
2461057.500000000, A.D. 2026-Jan-17 00:00:00.0000, 1.143986250387143E+08, 4.490638932378634E+08, -8.635105193417697E+07,
2461064.500000000, A.D. 2026-Jan-24 00:00:00.0000, 1.047598562972607E+08, 4.511332863793698E+08, -8.656465471059662E+07,
2461071.500000000, A.D. 2026-Jan-31 00:00:00.0000, 9.507233211021638E+07, 4.529933468034066E+08, -8.673804339636678E+07,
2461078.500000000, A.D. 2026-Feb-07 00:00:00.0000, 8.534047764501663E+07, 4.546428926235939E+08, -8.687107529756442E+07,
2461085.500000000, A.D. 2026-Feb-14 00:00:00.0000, 7.556874946365270E+07, 4.560808193789878E+08, -8.696362307055148E+07,
2461092.500000000, A.D. 2026-Feb-21 00:00:00.0000, 6.576163566838437E+07, 4.573061009644373E+08, -8.701557495186293E+07,
2461099.500000000, A.D. 2026-Feb-28 00:00:00.0000, 5.592365563321466E+07, 4.583177921621702E+08, -8.702683482685407E+07,
2461106.500000000, A.D. 2026-Mar-07 00:00:00.0000, 4.605935726151321E+07, 4.591150308229184E+08, -8.699732210697153E+07,
2461113.500000000, A.D. 2026-Mar-14 00:00:00.0000, 3.617331454186646E+07, 4.596970373626196E+08, -8.692697185997717E+07,
2461120.500000000, A.D. 2026-Mar-21 00:00:00.0000, 2.627012718267724E+07, 4.600631144749603E+08, -8.681573512052391E+07,
2461127.500000000, A.D. 2026-Mar-28 00:00:00.0000, 1.635442031571721E+07, 4.602126480888758E+08, -8.666357911309208E+07,
2461134.500000000, A.D. 2026-Apr-04 00:00:00.0000, 6.430843663726397E+06, 4.601451086042146E+08, -8.647048741043915E+07,
2461141.500000000, A.D. 2026-Apr-11 00:00:00.0000, -3.495929555394036E+06, 4.598600520446087E+08, -8.623646008168332E+07,
2461148.500000000, A.D. 2026-Apr-18 00:00:00.0000, -1.342120382950294E+07, 4.593571211195143E+08, -8.596151384462801E+07,
2461155.500000000, A.D. 2026-Apr-25 00:00:00.0000, -2.334026261342707E+07, 4.586360462080115E+08, -8.564568222443296E+07,
2461162.500000000, A.D. 2026-May-02 00:00:00.0000, -3.324836962139906E+07, 4.576966462321635E+08, -8.528901572274075E+07,
2461169.500000000, A.D. 2026-May-09 00:00:00.0000, -4.314077002867974E+07, 4.565388293515064E+08, -8.489158201311879E+07,
2461176.500000000, A.D. 2026-May-16 00:00:00.0000, -5.301269120756321E+07, 4.551625936160531E+08, -8.445346618578056E+07,
2461183.500000000, A.D. 2026-May-23 00:00:00.0000, -6.285934294880544E+07, 4.535680286009628E+08, -8.397477096325299E+07,
2461190.500000000, A.D. 2026-May-30 00:00:00.0000, -7.267591924789047E+07, 4.517553183436836E+08, -8.345561667112982E+07,
2461197.500000000, A.D. 2026-Jun-06 00:00:00.0000, -8.245760197326091E+07, 4.497247423079873E+08, -8.289614120197669E+07,
2461204.500000000, A.D. 2026-Jun-13 00:00:00.0000, -9.219956275304337E+07, 4.474766745712222E+08, -8.229650029168415E+07,
2461211.500000000, A.D. 2026-Jun-20 00:00:00.0000, -1.018969635835048E+08, 4.450115841612273E+08, -8.165686782384276E+07,
2461218.500000000, A.D. 2026-Jun-27 00:00:00.0000, -1.115449578580406E+08, 4.423300362017570E+08, -8.097743603424963E+07,
2461225.500000000, A.D. 2026-Jul-04 00:00:00.0000, -1.211386918179736E+08, 4.394326930886436E+08, -8.025841567832042E+07,
2461232.500000000, A.D. 2026-Jul-11 00:00:00.0000, -1.306733061730495E+08, 4.363203155621442E+08, -7.950003619504562E+07,
2461239.500000000, A.D. 2026-Jul-18 00:00:00.0000, -1.401439378007598E+08, 4.329937636988458E+08, -7.870254587359118E+07,
2461246.500000000, A.D. 2026-Jul-25 00:00:00.0000, -1.495457215017967E+08, 4.294539978235188E+08, -7.786621202426460E+07,
2461253.500000000, A.D. 2026-Aug-01 00:00:00.0000, -1.588737917651967E+08, 4.257020792903726E+08, -7.699132116183372E+07,
2461260.500000000, A.D. 2026-Aug-08 00:00:00.0000, -1.681232843299329E+08, 4.217391710952303E+08, -7.607817922338386E+07,
2461267.500000000, A.D. 2026-Aug-15 00:00:00.0000, -1.772893371297872E+08, 4.175665387664003E+08, -7.512711182149053E+07,
2461274.500000000, A.D. 2026-Aug-22 00:00:00.0000, -1.863670913847424E+08, 4.131855527536587E+08, -7.413846436289801E+07,
2461281.500000000, A.D. 2026-Aug-29 00:00:00.0000, -1.953516951289062E+08, 4.085976909412299E+08, -7.311260193480180E+07,
2461288.500000000, A.D. 2026-Sep-05 00:00:00.0000, -2.042383070408938E+08, 4.038045384122573E+08, -7.204990938739692E+07,
$$EOE